STARLINK-1733
1 46564U 20070AJ  26090.83335647  .00226312  00000+0  10941-2 0  9992
2 46564  53.0411 356.6839 0002097 171.3678 314.3158 15.81383944  6021
